[{"OBJECT_NAME":"FLOCK 4G-8","OBJECT_ID":"2025-009E","EPOCH":"2026-03-09T17:22:17.546016","MEAN_MOTION":15.27623414,"ECCENTRICITY":0.00030503,"INCLINATION":97.4045,"RA_OF_ASC_NODE":151.2834,"ARG_OF_PERICENTER":315.2538,"MEAN_ANOMALY":44.8455,"EPHEMERIS_TYPE":0,"CLASSIFICATION_TYPE":"U","NORAD_CAT_ID":62613,"ELEMENT_SET_NO":999,"REV_AT_EPOCH":6372,"BSTAR":0.0005043806,"MEAN_MOTION_DOT":0.00013559,"MEAN_MOTION_DDOT":0},{"OBJECT_NAME":"STARLINK-36524","OBJECT_ID":"2026-008H","EPOCH":"2026-03-09T20:41:41.715168","MEAN_MOTION":15.27595859,"ECCENTRICITY":0.00024492,"INCLINATION":43.0011,"RA_OF_ASC_NODE":204.6815,"ARG_OF_PERICENTER":288.5037,"MEAN_ANOMALY":71.5549,"EPHEMERIS_TYPE":0,"CLASSIFICATION_TYPE":"U","NORAD_CAT_ID":67452,"ELEMENT_SET_NO":999,"REV_AT_EPOCH":959,"BSTAR":0.0015351124,"MEAN_MOTION_DOT":0.00042245,"MEAN_MOTION_DDOT":0}]
